GLOBALSTAR M024         
1 25883U 99043A   25315.21994312 -.00000097  00000+0 -11373-2 0  9992
2 25883  52.0047  48.8604 0000892 359.8918  17.0479 11.10170135131191
GLOBALSTAR M027         
1 25884U 99043B   25315.21661079 -.00000051  00000+0  47252-3 0  9999
2 25884  52.0170 131.0183 0020644 226.5764 133.3311 11.04373202157482
GLOBALSTAR M054         
1 25885U 99043C   25315.20404634 -.00000004  00000+0  17123-2 0  9992
2 25885  52.0129 233.6744 0005895  67.1411  83.4684 11.39223276135801
GLOBALSTAR M053         
1 25886U 99043D   25315.06958524 -.00000060  00000+0  26492-3 0  9991
2 25886  51.9955 189.2420 0003423 353.4505 186.2532 11.27668422136015
GLOBALSTAR M058         
1 25907U 99049A   25315.32580194 -.00000055  00000+0  39028-3 0  9997
2 25907  51.9942  76.2702 0002189 174.7095 185.3763 11.93204150559101
GLOBALSTAR M050         
1 25908U 99049B   25315.09281426  .00000016  00000+0  11720-2 0  9992
2 25908  51.9994  73.5931 0008351 327.4378 203.8348 12.07460603165933
GLOBALSTAR M033         
1 25909U 99049C   25315.29526705 -.00000098  00000+0 -61566-4 0  9994
2 25909  51.9919 294.7115 0013595 207.1829 152.8308 12.20292992553707
GLOBALSTAR M055         
1 25910U 99049D   25315.24771703 -.00000051  00000+0  37113-3 0  9999
2 25910  52.0027 298.4327 0007314  75.4965 284.6698 12.29435458186372
